{
"type": "FeatureCollection",
"name": "vektorinis",
"crs": { "type": "name", "properties": { "name": "urn:ogc:def:crs:EPSG::3346" } },
"features": [
{ "type": "Feature", "properties": { "OBJECTID": 23388, "unikalus_nr": "440051942755", "kadastro_nr": "0101/0170:2693", "sav_kodas": "13", "sav_pavadinimas": "Vilniaus m. sav.", "seniunijos_kodas": null, "seniunijos_pavad": null, "pask_tipas": "995", "osta_statusas": "21", "skl_plotas": 0.0496, "SHAPE_Length": 0.0, "SHAPE_Area": 0.0 }, "geometry": null },
{ "type": "Feature", "properties": { "OBJECTID": 34324, "unikalus_nr": "440051941270", "kadastro_nr": "0101/0170:2694", "sav_kodas": "13", "sav_pavadinimas": "Vilniaus m. sav.", "seniunijos_kodas": null, "seniunijos_pavad": null, "pask_tipas": "995", "osta_statusas": "21", "skl_plotas": 0.1789, "SHAPE_Length": 0.0, "SHAPE_Area": 0.0 }, "geometry": null },
{ "type": "Feature", "properties": { "OBJECTID": 51149, "unikalus_nr": "440051942900", "kadastro_nr": "0101/0170:2685", "sav_kodas": "13", "sav_pavadinimas": "Vilniaus m. sav.", "seniunijos_kodas": null, "seniunijos_pavad": null, "pask_tipas": "995", "osta_statusas": "21", "skl_plotas": 0.321, "SHAPE_Length": 0.0, "SHAPE_Area": 0.0 }, "geometry": null },
{ "type": "Feature", "properties": { "OBJECTID": 74875, "unikalus_nr": "440051941369", "kadastro_nr": "0101/0170:2682", "sav_kodas": "13", "sav_pavadinimas": "Vilniaus m. sav.", "seniunijos_kodas": null, "seniunijos_pavad": null, "pask_tipas": "995", "osta_statusas": "21", "skl_plotas": 0.0496, "SHAPE_Length": 0.0, "SHAPE_Area": 0.0 }, "geometry": null },
{ "type": "Feature", "properties": { "OBJECTID": 79388, "unikalus_nr": "440051942844", "kadastro_nr": "0101/0170:2763", "sav_kodas": "13", "sav_pavadinimas": "Vilniaus m. sav.", "seniunijos_kodas": null, "seniunijos_pavad": null, "pask_tipas": "995", "osta_statusas": "21", "skl_plotas": 0.1218, "SHAPE_Length": 0.0, "SHAPE_Area": 0.0 }, "geometry": null },
{ "type": "Feature", "properties": { "OBJECTID": 81943, "unikalus_nr": "440051942866", "kadastro_nr": "0101/0170:2686", "sav_kodas": "13", "sav_pavadinimas": "Vilniaus m. sav.", "seniunijos_kodas": null, "seniunijos_pavad": null, "pask_tipas": "995", "osta_statusas": "21", "skl_plotas": 0.1218, "SHAPE_Length": 0.0, "SHAPE_Area": 0.0 }, "geometry": null },
{ "type": "Feature", "properties": { "OBJECTID": 553260, "unikalus_nr": "411007000224", "kadastro_nr": "4110/0700:0224", "sav_kodas": "41", "sav_pavadinimas": "Vilniaus r. sav.", "seniunijos_kodas": "4112", "seniunijos_pavad": "Zujūnų sen.", "pask_tipas": "995", "osta_statusas": null, "skl_plotas": 0.15, "SHAPE_Length": 0.0, "SHAPE_Area": 0.0 }, "geometry": null },
{ "type": "Feature", "properties": { "OBJECTID": 553384, "unikalus_nr": "411008000549", "kadastro_nr": "4110/0700:1120", "sav_kodas": "41", "sav_pavadinimas": "Vilniaus r. sav.", "seniunijos_kodas": "4112", "seniunijos_pavad": "Zujūnų sen.", "pask_tipas": "995", "osta_statusas": null, "skl_plotas": 0.5404, "SHAPE_Length": 0.0, "SHAPE_Area": 0.0 }, "geometry": null },
{ "type": "Feature", "properties": { "OBJECTID": 554001, "unikalus_nr": "440056482869", "kadastro_nr": "4110/0700:1218", "sav_kodas": "41", "sav_pavadinimas": "Vilniaus r. sav.", "seniunijos_kodas": "4112", "seniunijos_pavad": "Zujūnų sen.", "pask_tipas": "995", "osta_statusas": null, "skl_plotas": 0.0204, "SHAPE_Length": 0.0, "SHAPE_Area": 0.0 }, "geometry": null },
{ "type": "Feature", "properties": { "OBJECTID": 554845, "unikalus_nr": "411007000077", "kadastro_nr": "4110/0700:0077", "sav_kodas": "41", "sav_pavadinimas": "Vilniaus r. sav.", "seniunijos_kodas": "4112", "seniunijos_pavad": "Zujūnų sen.", "pask_tipas": "995", "osta_statusas": null, "skl_plotas": 0.1503, "SHAPE_Length": 0.0, "SHAPE_Area": 0.0 }, "geometry": null },
{ "type": "Feature", "properties": { "OBJECTID": 555451, "unikalus_nr": "440053141729", "kadastro_nr": "4103/0200:8816", "sav_kodas": "41", "sav_pavadinimas": "Vilniaus r. sav.", "seniunijos_kodas": "4102", "seniunijos_pavad": "Avižienių sen.", "pask_tipas": "995", "osta_statusas": "21", "skl_plotas": 0.1001, "SHAPE_Length": 0.0, "SHAPE_Area": 0.0 }, "geometry": null },
{ "type": "Feature", "properties": { "OBJECTID": 559662, "unikalus_nr": "440057635897", "kadastro_nr": "4110/0700:1506", "sav_kodas": "41", "sav_pavadinimas": "Vilniaus r. sav.", "seniunijos_kodas": "4112", "seniunijos_pavad": "Zujūnų sen.", "pask_tipas": "995", "osta_statusas": "21", "skl_plotas": 0.156, "SHAPE_Length": 0.0, "SHAPE_Area": 0.0 }, "geometry": null },
{ "type": "Feature", "properties": { "OBJECTID": 560233, "unikalus_nr": "411007000121", "kadastro_nr": "4110/0700:0121", "sav_kodas": "41", "sav_pavadinimas": "Vilniaus r. sav.", "seniunijos_kodas": "4112", "seniunijos_pavad": "Zujūnų sen.", "pask_tipas": "995", "osta_statusas": null, "skl_plotas": 0.15, "SHAPE_Length": 0.0, "SHAPE_Area": 0.0 }, "geometry": null },
{ "type": "Feature", "properties": { "OBJECTID": 560718, "unikalus_nr": "440046350596", "kadastro_nr": "4110/0700:0878", "sav_kodas": "41", "sav_pavadinimas": "Vilniaus r. sav.", "seniunijos_kodas": "4112", "seniunijos_pavad": "Zujūnų sen.", "pask_tipas": "995", "osta_statusas": "21", "skl_plotas": 0.1877, "SHAPE_Length": 0.0, "SHAPE_Area": 0.0 }, "geometry": null },
{ "type": "Feature", "properties": { "OBJECTID": 561503, "unikalus_nr": "440057636472", "kadastro_nr": "4110/0700:1570", "sav_kodas": "41", "sav_pavadinimas": "Vilniaus r. sav.", "seniunijos_kodas": "4112", "seniunijos_pavad": "Zujūnų sen.", "pask_tipas": "995", "osta_statusas": "21", "skl_plotas": 0.6, "SHAPE_Length": 0.0, "SHAPE_Area": 0.0 }, "geometry": null },
{ "type": "Feature", "properties": { "OBJECTID": 562198, "unikalus_nr": "411007000096", "kadastro_nr": "4110/0700:0096", "sav_kodas": "41", "sav_pavadinimas": "Vilniaus r. sav.", "seniunijos_kodas": "4112", "seniunijos_pavad": "Zujūnų sen.", "pask_tipas": "995", "osta_statusas": null, "skl_plotas": 0.2105, "SHAPE_Length": 0.0, "SHAPE_Area": 0.0 }, "geometry": null },
{ "type": "Feature", "properties": { "OBJECTID": 562256, "unikalus_nr": "411007000138", "kadastro_nr": "4110/0700:0138", "sav_kodas": "41", "sav_pavadinimas": "Vilniaus r. sav.", "seniunijos_kodas": "4112", "seniunijos_pavad": "Zujūnų sen.", "pask_tipas": "995", "osta_statusas": null, "skl_plotas": 0.15, "SHAPE_Length": 0.0, "SHAPE_Area": 0.0 }, "geometry": null },
{ "type": "Feature", "properties": { "OBJECTID": 562810, "unikalus_nr": "440064769448", "kadastro_nr": "4110/0700:9188", "sav_kodas": "41", "sav_pavadinimas": "Vilniaus r. sav.", "seniunijos_kodas": "4112", "seniunijos_pavad": "Zujūnų sen.", "pask_tipas": "995", "osta_statusas": "22", "skl_plotas": 0.1651, "SHAPE_Length": 0.0, "SHAPE_Area": 0.0 }, "geometry": null },
{ "type": "Feature", "properties": { "OBJECTID": 564232, "unikalus_nr": "440053141661", "kadastro_nr": "4103/0200:3273", "sav_kodas": "41", "sav_pavadinimas": "Vilniaus r. sav.", "seniunijos_kodas": "4102", "seniunijos_pavad": "Avižienių sen.", "pask_tipas": "995", "osta_statusas": "21", "skl_plotas": 0.1, "SHAPE_Length": 0.0, "SHAPE_Area": 0.0 }, "geometry": null },
{ "type": "Feature", "properties": { "OBJECTID": 564688, "unikalus_nr": "411007000167", "kadastro_nr": "4110/0700:0167", "sav_kodas": "41", "sav_pavadinimas": "Vilniaus r. sav.", "seniunijos_kodas": "4112", "seniunijos_pavad": "Zujūnų sen.", "pask_tipas": "995", "osta_statusas": null, "skl_plotas": 0.15, "SHAPE_Length": 0.0, "SHAPE_Area": 0.0 }, "geometry": null },
{ "type": "Feature", "properties": { "OBJECTID": 564757, "unikalus_nr": "411007000088", "kadastro_nr": "4110/0700:0088", "sav_kodas": "41", "sav_pavadinimas": "Vilniaus r. sav.", "seniunijos_kodas": "4112", "seniunijos_pavad": "Zujūnų sen.", "pask_tipas": "995", "osta_statusas": null, "skl_plotas": 0.15, "SHAPE_Length": 0.0, "SHAPE_Area": 0.0 }, "geometry": null },
{ "type": "Feature", "properties": { "OBJECTID": 565064, "unikalus_nr": "440020155206", "kadastro_nr": "4110/0700:4924", "sav_kodas": "41", "sav_pavadinimas": "Vilniaus r. sav.", "seniunijos_kodas": "4112", "seniunijos_pavad": "Zujūnų sen.", "pask_tipas": "995", "osta_statusas": "21", "skl_plotas": 0.1675, "SHAPE_Length": 0.0, "SHAPE_Area": 0.0 }, "geometry": null },
{ "type": "Feature", "properties": { "OBJECTID": 565304, "unikalus_nr": "411007000095", "kadastro_nr": "4110/0700:0095", "sav_kodas": "41", "sav_pavadinimas": "Vilniaus r. sav.", "seniunijos_kodas": "4112", "seniunijos_pavad": "Zujūnų sen.", "pask_tipas": "995", "osta_statusas": null, "skl_plotas": 0.15, "SHAPE_Length": 0.0, "SHAPE_Area": 0.0 }, "geometry": null },
{ "type": "Feature", "properties": { "OBJECTID": 565866, "unikalus_nr": "440060671316", "kadastro_nr": "4110/0700:0204", "sav_kodas": "41", "sav_pavadinimas": "Vilniaus r. sav.", "seniunijos_kodas": "4112", "seniunijos_pavad": "Zujūnų sen.", "pask_tipas": "995", "osta_statusas": null, "skl_plotas": 0.0205, "SHAPE_Length": 0.0, "SHAPE_Area": 0.0 }, "geometry": null },
{ "type": "Feature", "properties": { "OBJECTID": 565989, "unikalus_nr": "411007000278", "kadastro_nr": "4110/0700:0278", "sav_kodas": "41", "sav_pavadinimas": "Vilniaus r. sav.", "seniunijos_kodas": "4112", "seniunijos_pavad": "Zujūnų sen.", "pask_tipas": "995", "osta_statusas": null, "skl_plotas": 0.15, "SHAPE_Length": 0.0, "SHAPE_Area": 0.0 }, "geometry": null },
{ "type": "Feature", "properties": { "OBJECTID": 566217, "unikalus_nr": "440046350563", "kadastro_nr": "4110/0700:1003", "sav_kodas": "41", "sav_pavadinimas": "Vilniaus r. sav.", "seniunijos_kodas": "4112", "seniunijos_pavad": "Zujūnų sen.", "pask_tipas": "995", "osta_statusas": "21", "skl_plotas": 0.1001, "SHAPE_Length": 0.0, "SHAPE_Area": 0.0 }, "geometry": null },
{ "type": "Feature", "properties": { "OBJECTID": 566628, "unikalus_nr": "411007000024", "kadastro_nr": "4110/0700:0024", "sav_kodas": "41", "sav_pavadinimas": "Vilniaus r. sav.", "seniunijos_kodas": "4112", "seniunijos_pavad": "Zujūnų sen.", "pask_tipas": "995", "osta_statusas": null, "skl_plotas": 0.1206, "SHAPE_Length": 0.0, "SHAPE_Area": 0.0 }, "geometry": null },
{ "type": "Feature", "properties": { "OBJECTID": 568953, "unikalus_nr": "440007196972", "kadastro_nr": "4110/0700:1722", "sav_kodas": "41", "sav_pavadinimas": "Vilniaus r. sav.", "seniunijos_kodas": "4112", "seniunijos_pavad": "Zujūnų sen.", "pask_tipas": "610", "osta_statusas": null, "skl_plotas": 2.761, "SHAPE_Length": 0.0, "SHAPE_Area": 0.0 }, "geometry": null },
{ "type": "Feature", "properties": { "OBJECTID": 569458, "unikalus_nr": "440058608672", "kadastro_nr": "4110/0700:1199", "sav_kodas": "41", "sav_pavadinimas": "Vilniaus r. sav.", "seniunijos_kodas": "4112", "seniunijos_pavad": "Zujūnų sen.", "pask_tipas": "995", "osta_statusas": null, "skl_plotas": 0.0246, "SHAPE_Length": 0.0, "SHAPE_Area": 0.0 }, "geometry": null },
{ "type": "Feature", "properties": { "OBJECTID": 571748, "unikalus_nr": "411007000182", "kadastro_nr": "4110/0700:0182", "sav_kodas": "41", "sav_pavadinimas": "Vilniaus r. sav.", "seniunijos_kodas": "4112", "seniunijos_pavad": "Zujūnų sen.", "pask_tipas": "995", "osta_statusas": null, "skl_plotas": 0.9268, "SHAPE_Length": 0.0, "SHAPE_Area": 0.0 }, "geometry": null },
{ "type": "Feature", "properties": { "OBJECTID": 572447, "unikalus_nr": "440051073144", "kadastro_nr": "4110/0700:0967", "sav_kodas": "41", "sav_pavadinimas": "Vilniaus r. sav.", "seniunijos_kodas": "4112", "seniunijos_pavad": "Zujūnų sen.", "pask_tipas": "995", "osta_statusas": null, "skl_plotas": 0.1541, "SHAPE_Length": 0.0, "SHAPE_Area": 0.0 }, "geometry": null },
{ "type": "Feature", "properties": { "OBJECTID": 572852, "unikalus_nr": "411007000119", "kadastro_nr": "4110/0700:0119", "sav_kodas": "41", "sav_pavadinimas": "Vilniaus r. sav.", "seniunijos_kodas": "4112", "seniunijos_pavad": "Zujūnų sen.", "pask_tipas": "995", "osta_statusas": null, "skl_plotas": 0.15, "SHAPE_Length": 0.0, "SHAPE_Area": 0.0 }, "geometry": null },
{ "type": "Feature", "properties": { "OBJECTID": 574560, "unikalus_nr": "440008180943", "kadastro_nr": "4110/0700:1100", "sav_kodas": "41", "sav_pavadinimas": "Vilniaus r. sav.", "seniunijos_kodas": "4112", "seniunijos_pavad": "Zujūnų sen.", "pask_tipas": "995", "osta_statusas": "21", "skl_plotas": 0.2, "SHAPE_Length": 0.0, "SHAPE_Area": 0.0 }, "geometry": null },
{ "type": "Feature", "properties": { "OBJECTID": 575526, "unikalus_nr": "440047127764", "kadastro_nr": "4110/0700:0983", "sav_kodas": "41", "sav_pavadinimas": "Vilniaus r. sav.", "seniunijos_kodas": "4112", "seniunijos_pavad": "Zujūnų sen.", "pask_tipas": "995", "osta_statusas": "21", "skl_plotas": 0.1001, "SHAPE_Length": 0.0, "SHAPE_Area": 0.0 }, "geometry": null },
{ "type": "Feature", "properties": { "OBJECTID": 577445, "unikalus_nr": "440047212844", "kadastro_nr": "4110/0700:1018", "sav_kodas": "41", "sav_pavadinimas": "Vilniaus r. sav.", "seniunijos_kodas": "4112", "seniunijos_pavad": "Zujūnų sen.", "pask_tipas": "995", "osta_statusas": "21", "skl_plotas": 0.1004, "SHAPE_Length": 0.0, "SHAPE_Area": 0.0 }, "geometry": null },
{ "type": "Feature", "properties": { "OBJECTID": 577616, "unikalus_nr": "440023984043", "kadastro_nr": "4110/0700:2990", "sav_kodas": "41", "sav_pavadinimas": "Vilniaus r. sav.", "seniunijos_kodas": "4112", "seniunijos_pavad": "Zujūnų sen.", "pask_tipas": "995", "osta_statusas": "21", "skl_plotas": 0.1185, "SHAPE_Length": 0.0, "SHAPE_Area": 0.0 }, "geometry": null },
{ "type": "Feature", "properties": { "OBJECTID": 578038, "unikalus_nr": "411007000082", "kadastro_nr": "4110/0700:0082", "sav_kodas": "41", "sav_pavadinimas": "Vilniaus r. sav.", "seniunijos_kodas": "4112", "seniunijos_pavad": "Zujūnų sen.", "pask_tipas": "995", "osta_statusas": null, "skl_plotas": 0.1502, "SHAPE_Length": 0.0, "SHAPE_Area": 0.0 }, "geometry": null },
{ "type": "Feature", "properties": { "OBJECTID": 578040, "unikalus_nr": "440001476411", "kadastro_nr": "4103/0200:0848", "sav_kodas": "41", "sav_pavadinimas": "Vilniaus r. sav.", "seniunijos_kodas": "4102", "seniunijos_pavad": "Avižienių sen.", "pask_tipas": "610", "osta_statusas": "21", "skl_plotas": 0.2144, "SHAPE_Length": 0.0, "SHAPE_Area": 0.0 }, "geometry": null },
{ "type": "Feature", "properties": { "OBJECTID": 578238, "unikalus_nr": "440047140149", "kadastro_nr": "4110/0700:0931", "sav_kodas": "41", "sav_pavadinimas": "Vilniaus r. sav.", "seniunijos_kodas": "4112", "seniunijos_pavad": "Zujūnų sen.", "pask_tipas": "995", "osta_statusas": "21", "skl_plotas": 0.4063, "SHAPE_Length": 0.0, "SHAPE_Area": 0.0 }, "geometry": null },
{ "type": "Feature", "properties": { "OBJECTID": 580356, "unikalus_nr": "411007000142", "kadastro_nr": "4110/0700:0142", "sav_kodas": "41", "sav_pavadinimas": "Vilniaus r. sav.", "seniunijos_kodas": "4112", "seniunijos_pavad": "Zujūnų sen.", "pask_tipas": "995", "osta_statusas": null, "skl_plotas": 0.15, "SHAPE_Length": 0.0, "SHAPE_Area": 0.0 }, "geometry": null },
{ "type": "Feature", "properties": { "OBJECTID": 583032, "unikalus_nr": "440046351654", "kadastro_nr": "4110/0700:0927", "sav_kodas": "41", "sav_pavadinimas": "Vilniaus r. sav.", "seniunijos_kodas": "4112", "seniunijos_pavad": "Zujūnų sen.", "pask_tipas": "995", "osta_statusas": "21", "skl_plotas": 0.1001, "SHAPE_Length": 0.0, "SHAPE_Area": 0.0 }, "geometry": null },
{ "type": "Feature", "properties": { "OBJECTID": 583731, "unikalus_nr": "440056439268", "kadastro_nr": "4110/0700:1265", "sav_kodas": "41", "sav_pavadinimas": "Vilniaus r. sav.", "seniunijos_kodas": "4112", "seniunijos_pavad": "Zujūnų sen.", "pask_tipas": "995", "osta_statusas": "22", "skl_plotas": 0.1769, "SHAPE_Length": 0.0, "SHAPE_Area": 0.0 }, "geometry": null },
{ "type": "Feature", "properties": { "OBJECTID": 583751, "unikalus_nr": "411007000206", "kadastro_nr": "4110/0700:0206", "sav_kodas": "41", "sav_pavadinimas": "Vilniaus r. sav.", "seniunijos_kodas": "4112", "seniunijos_pavad": "Zujūnų sen.", "pask_tipas": "995", "osta_statusas": null, "skl_plotas": 0.15, "SHAPE_Length": 0.0, "SHAPE_Area": 0.0 }, "geometry": null },
{ "type": "Feature", "properties": { "OBJECTID": 584820, "unikalus_nr": "440004036382", "kadastro_nr": "4103/0200:1057", "sav_kodas": "41", "sav_pavadinimas": "Vilniaus r. sav.", "seniunijos_kodas": "4102", "seniunijos_pavad": "Avižienių sen.", "pask_tipas": "995", "osta_statusas": "21", "skl_plotas": 0.162, "SHAPE_Length": 0.0, "SHAPE_Area": 0.0 }, "geometry": null },
{ "type": "Feature", "properties": { "OBJECTID": 585293, "unikalus_nr": "440053141250", "kadastro_nr": "4103/0200:8818", "sav_kodas": "41", "sav_pavadinimas": "Vilniaus r. sav.", "seniunijos_kodas": "4102", "seniunijos_pavad": "Avižienių sen.", "pask_tipas": "995", "osta_statusas": "21", "skl_plotas": 0.1201, "SHAPE_Length": 0.0, "SHAPE_Area": 0.0 }, "geometry": null },
{ "type": "Feature", "properties": { "OBJECTID": 586275, "unikalus_nr": "440023984343", "kadastro_nr": "4110/0700:2993", "sav_kodas": "41", "sav_pavadinimas": "Vilniaus r. sav.", "seniunijos_kodas": "4112", "seniunijos_pavad": "Zujūnų sen.", "pask_tipas": "995", "osta_statusas": "21", "skl_plotas": 0.1184, "SHAPE_Length": 0.0, "SHAPE_Area": 0.0 }, "geometry": null },
{ "type": "Feature", "properties": { "OBJECTID": 586571, "unikalus_nr": "411007000146", "kadastro_nr": "4110/0700:0146", "sav_kodas": "41", "sav_pavadinimas": "Vilniaus r. sav.", "seniunijos_kodas": "4112", "seniunijos_pavad": "Zujūnų sen.", "pask_tipas": "995", "osta_statusas": null, "skl_plotas": 0.155, "SHAPE_Length": 0.0, "SHAPE_Area": 0.0 }, "geometry": null },
{ "type": "Feature", "properties": { "OBJECTID": 587122, "unikalus_nr": "411007000120", "kadastro_nr": "4110/0700:0120", "sav_kodas": "41", "sav_pavadinimas": "Vilniaus r. sav.", "seniunijos_kodas": "4112", "seniunijos_pavad": "Zujūnų sen.", "pask_tipas": "995", "osta_statusas": null, "skl_plotas": 0.15, "SHAPE_Length": 0.0, "SHAPE_Area": 0.0 }, "geometry": null },
{ "type": "Feature", "properties": { "OBJECTID": 588144, "unikalus_nr": "411007000555", "kadastro_nr": "4110/0700:0555", "sav_kodas": "41", "sav_pavadinimas": "Vilniaus r. sav.", "seniunijos_kodas": "4112", "seniunijos_pavad": "Zujūnų sen.", "pask_tipas": "995", "osta_statusas": null, "skl_plotas": 0.1481, "SHAPE_Length": 0.0, "SHAPE_Area": 0.0 }, "geometry": null },
{ "type": "Feature", "properties": { "OBJECTID": 588542, "unikalus_nr": "411007000108", "kadastro_nr": "4110/0700:0108", "sav_kodas": "41", "sav_pavadinimas": "Vilniaus r. sav.", "seniunijos_kodas": "4112", "seniunijos_pavad": "Zujūnų sen.", "pask_tipas": "995", "osta_statusas": null, "skl_plotas": 0.15, "SHAPE_Length": 0.0, "SHAPE_Area": 0.0 }, "geometry": null },
{ "type": "Feature", "properties": { "OBJECTID": 588764, "unikalus_nr": "411007000246", "kadastro_nr": "4110/0700:0246", "sav_kodas": "41", "sav_pavadinimas": "Vilniaus r. sav.", "seniunijos_kodas": "4112", "seniunijos_pavad": "Zujūnų sen.", "pask_tipas": "995", "osta_statusas": null, "skl_plotas": 0.1, "SHAPE_Length": 0.0, "SHAPE_Area": 0.0 }, "geometry": null },
{ "type": "Feature", "properties": { "OBJECTID": 589410, "unikalus_nr": "411007000060", "kadastro_nr": "4110/0700:0060", "sav_kodas": "41", "sav_pavadinimas": "Vilniaus r. sav.", "seniunijos_kodas": "4112", "seniunijos_pavad": "Zujūnų sen.", "pask_tipas": "995", "osta_statusas": null, "skl_plotas": 0.1519, "SHAPE_Length": 0.0, "SHAPE_Area": 0.0 }, "geometry": null },
{ "type": "Feature", "properties": { "OBJECTID": 590223, "unikalus_nr": "440047127080", "kadastro_nr": "4110/0700:1052", "sav_kodas": "41", "sav_pavadinimas": "Vilniaus r. sav.", "seniunijos_kodas": "4112", "seniunijos_pavad": "Zujūnų sen.", "pask_tipas": "995", "osta_statusas": "21", "skl_plotas": 0.1002, "SHAPE_Length": 0.0, "SHAPE_Area": 0.0 }, "geometry": null },
{ "type": "Feature", "properties": { "OBJECTID": 590683, "unikalus_nr": "411007000109", "kadastro_nr": "4110/0700:0109", "sav_kodas": "41", "sav_pavadinimas": "Vilniaus r. sav.", "seniunijos_kodas": "4112", "seniunijos_pavad": "Zujūnų sen.", "pask_tipas": "995", "osta_statusas": null, "skl_plotas": 0.15, "SHAPE_Length": 0.0, "SHAPE_Area": 0.0 }, "geometry": null },
{ "type": "Feature", "properties": { "OBJECTID": 591305, "unikalus_nr": "440020155160", "kadastro_nr": "4110/0700:4923", "sav_kodas": "41", "sav_pavadinimas": "Vilniaus r. sav.", "seniunijos_kodas": "4112", "seniunijos_pavad": "Zujūnų sen.", "pask_tipas": "995", "osta_statusas": "21", "skl_plotas": 0.1, "SHAPE_Length": 0.0, "SHAPE_Area": 0.0 }, "geometry": null },
{ "type": "Feature", "properties": { "OBJECTID": 591803, "unikalus_nr": "440046351728", "kadastro_nr": "4110/0700:0908", "sav_kodas": "41", "sav_pavadinimas": "Vilniaus r. sav.", "seniunijos_kodas": "4112", "seniunijos_pavad": "Zujūnų sen.", "pask_tipas": "995", "osta_statusas": "21", "skl_plotas": 0.2035, "SHAPE_Length": 0.0, "SHAPE_Area": 0.0 }, "geometry": null },
{ "type": "Feature", "properties": { "OBJECTID": 592993, "unikalus_nr": "411007000083", "kadastro_nr": "4110/0700:0083", "sav_kodas": "41", "sav_pavadinimas": "Vilniaus r. sav.", "seniunijos_kodas": "4112", "seniunijos_pavad": "Zujūnų sen.", "pask_tipas": "995", "osta_statusas": null, "skl_plotas": 0.1506, "SHAPE_Length": 0.0, "SHAPE_Area": 0.0 }, "geometry": null },
{ "type": "Feature", "properties": { "OBJECTID": 593683, "unikalus_nr": "411007000063", "kadastro_nr": "4110/0700:0063", "sav_kodas": "41", "sav_pavadinimas": "Vilniaus r. sav.", "seniunijos_kodas": "4112", "seniunijos_pavad": "Zujūnų sen.", "pask_tipas": "995", "osta_statusas": null, "skl_plotas": 0.1505, "SHAPE_Length": 0.0, "SHAPE_Area": 0.0 }, "geometry": null },
{ "type": "Feature", "properties": { "OBJECTID": 594287, "unikalus_nr": "440046351706", "kadastro_nr": "4110/0700:0982", "sav_kodas": "41", "sav_pavadinimas": "Vilniaus r. sav.", "seniunijos_kodas": "4112", "seniunijos_pavad": "Zujūnų sen.", "pask_tipas": "995", "osta_statusas": "21", "skl_plotas": 0.1001, "SHAPE_Length": 0.0, "SHAPE_Area": 0.0 }, "geometry": null },
{ "type": "Feature", "properties": { "OBJECTID": 594507, "unikalus_nr": "440055626632", "kadastro_nr": "4110/0700:1158", "sav_kodas": "41", "sav_pavadinimas": "Vilniaus r. sav.", "seniunijos_kodas": "4112", "seniunijos_pavad": "Zujūnų sen.", "pask_tipas": "995", "osta_statusas": "22", "skl_plotas": 0.1631, "SHAPE_Length": 0.0, "SHAPE_Area": 0.0 }, "geometry": null },
{ "type": "Feature", "properties": { "OBJECTID": 597417, "unikalus_nr": "411007000098", "kadastro_nr": "4110/0700:0098", "sav_kodas": "41", "sav_pavadinimas": "Vilniaus r. sav.", "seniunijos_kodas": "4112", "seniunijos_pavad": "Zujūnų sen.", "pask_tipas": "995", "osta_statusas": null, "skl_plotas": 0.3, "SHAPE_Length": 0.0, "SHAPE_Area": 0.0 }, "geometry": null },
{ "type": "Feature", "properties": { "OBJECTID": 597922, "unikalus_nr": "411007000118", "kadastro_nr": "4110/0700:0118", "sav_kodas": "41", "sav_pavadinimas": "Vilniaus r. sav.", "seniunijos_kodas": "4112", "seniunijos_pavad": "Zujūnų sen.", "pask_tipas": "995", "osta_statusas": null, "skl_plotas": 0.15, "SHAPE_Length": 0.0, "SHAPE_Area": 0.0 }, "geometry": null },
{ "type": "Feature", "properties": { "OBJECTID": 600256, "unikalus_nr": "411007000093", "kadastro_nr": "4110/0700:0093", "sav_kodas": "41", "sav_pavadinimas": "Vilniaus r. sav.", "seniunijos_kodas": "4112", "seniunijos_pavad": "Zujūnų sen.", "pask_tipas": "995", "osta_statusas": null, "skl_plotas": 0.15, "SHAPE_Length": 0.0, "SHAPE_Area": 0.0 }, "geometry": null },
{ "type": "Feature", "properties": { "OBJECTID": 600721, "unikalus_nr": "411007000247", "kadastro_nr": "4110/0700:0247", "sav_kodas": "41", "sav_pavadinimas": "Vilniaus r. sav.", "seniunijos_kodas": "4112", "seniunijos_pavad": "Zujūnų sen.", "pask_tipas": "995", "osta_statusas": "21", "skl_plotas": 0.1, "SHAPE_Length": 0.0, "SHAPE_Area": 0.0 }, "geometry": null },
{ "type": "Feature", "properties": { "OBJECTID": 600807, "unikalus_nr": "440050155224", "kadastro_nr": "4110/0700:0952", "sav_kodas": "41", "sav_pavadinimas": "Vilniaus r. sav.", "seniunijos_kodas": "4112", "seniunijos_pavad": "Zujūnų sen.", "pask_tipas": "995", "osta_statusas": null, "skl_plotas": 0.1054, "SHAPE_Length": 0.0, "SHAPE_Area": 0.0 }, "geometry": null },
{ "type": "Feature", "properties": { "OBJECTID": 601031, "unikalus_nr": "440050034812", "kadastro_nr": "4110/0700:0949", "sav_kodas": "41", "sav_pavadinimas": "Vilniaus r. sav.", "seniunijos_kodas": "4112", "seniunijos_pavad": "Zujūnų sen.", "pask_tipas": "610", "osta_statusas": null, "skl_plotas": 7.9352, "SHAPE_Length": 0.0, "SHAPE_Area": 0.0 }, "geometry": null },
{ "type": "Feature", "properties": { "OBJECTID": 602543, "unikalus_nr": "440004035963", "kadastro_nr": "4103/0200:1054", "sav_kodas": "41", "sav_pavadinimas": "Vilniaus r. sav.", "seniunijos_kodas": "4102", "seniunijos_pavad": "Avižienių sen.", "pask_tipas": "995", "osta_statusas": "21", "skl_plotas": 0.1257, "SHAPE_Length": 0.0, "SHAPE_Area": 0.0 }, "geometry": null },
{ "type": "Feature", "properties": { "OBJECTID": 604293, "unikalus_nr": "411007000125", "kadastro_nr": "4110/0700:0125", "sav_kodas": "41", "sav_pavadinimas": "Vilniaus r. sav.", "seniunijos_kodas": "4112", "seniunijos_pavad": "Zujūnų sen.", "pask_tipas": "995", "osta_statusas": null, "skl_plotas": 0.15, "SHAPE_Length": 0.0, "SHAPE_Area": 0.0 }, "geometry": null },
{ "type": "Feature", "properties": { "OBJECTID": 605633, "unikalus_nr": "440053139754", "kadastro_nr": "4103/0200:5807", "sav_kodas": "41", "sav_pavadinimas": "Vilniaus r. sav.", "seniunijos_kodas": "4102", "seniunijos_pavad": "Avižienių sen.", "pask_tipas": "995", "osta_statusas": "21", "skl_plotas": 0.1, "SHAPE_Length": 0.0, "SHAPE_Area": 0.0 }, "geometry": null },
{ "type": "Feature", "properties": { "OBJECTID": 607714, "unikalus_nr": "440047140216", "kadastro_nr": "4110/0700:1012", "sav_kodas": "41", "sav_pavadinimas": "Vilniaus r. sav.", "seniunijos_kodas": "4112", "seniunijos_pavad": "Zujūnų sen.", "pask_tipas": "995", "osta_statusas": "21", "skl_plotas": 0.2811, "SHAPE_Length": 0.0, "SHAPE_Area": 0.0 }, "geometry": null },
{ "type": "Feature", "properties": { "OBJECTID": 608386, "unikalus_nr": "440018481364", "kadastro_nr": "4110/0700:4899", "sav_kodas": "41", "sav_pavadinimas": "Vilniaus r. sav.", "seniunijos_kodas": "4112", "seniunijos_pavad": "Zujūnų sen.", "pask_tipas": "610", "osta_statusas": "21", "skl_plotas": 0.0669, "SHAPE_Length": 0.0, "SHAPE_Area": 0.0 }, "geometry": null },
{ "type": "Feature", "properties": { "OBJECTID": 608611, "unikalus_nr": "411007000144", "kadastro_nr": "4110/0700:0144", "sav_kodas": "41", "sav_pavadinimas": "Vilniaus r. sav.", "seniunijos_kodas": "4112", "seniunijos_pavad": "Zujūnų sen.", "pask_tipas": "995", "osta_statusas": null, "skl_plotas": 0.1611, "SHAPE_Length": 0.0, "SHAPE_Area": 0.0 }, "geometry": null },
{ "type": "Feature", "properties": { "OBJECTID": 609176, "unikalus_nr": "440047127948", "kadastro_nr": "4110/0700:1022", "sav_kodas": "41", "sav_pavadinimas": "Vilniaus r. sav.", "seniunijos_kodas": "4112", "seniunijos_pavad": "Zujūnų sen.", "pask_tipas": "995", "osta_statusas": "21", "skl_plotas": 0.1001, "SHAPE_Length": 0.0, "SHAPE_Area": 0.0 }, "geometry": null },
{ "type": "Feature", "properties": { "OBJECTID": 611392, "unikalus_nr": "411007000313", "kadastro_nr": "4110/0700:0313", "sav_kodas": "41", "sav_pavadinimas": "Vilniaus r. sav.", "seniunijos_kodas": "4112", "seniunijos_pavad": "Zujūnų sen.", "pask_tipas": "995", "osta_statusas": null, "skl_plotas": 0.15, "SHAPE_Length": 0.0, "SHAPE_Area": 0.0 }, "geometry": null },
{ "type": "Feature", "properties": { "OBJECTID": 611487, "unikalus_nr": "440057607748", "kadastro_nr": "4110/0700:1190", "sav_kodas": "41", "sav_pavadinimas": "Vilniaus r. sav.", "seniunijos_kodas": "4112", "seniunijos_pavad": "Zujūnų sen.", "pask_tipas": "995", "osta_statusas": "22", "skl_plotas": 0.2135, "SHAPE_Length": 0.0, "SHAPE_Area": 0.0 }, "geometry": null },
{ "type": "Feature", "properties": { "OBJECTID": 611811, "unikalus_nr": "411007000099", "kadastro_nr": "4110/0700:0099", "sav_kodas": "41", "sav_pavadinimas": "Vilniaus r. sav.", "seniunijos_kodas": "4112", "seniunijos_pavad": "Zujūnų sen.", "pask_tipas": "995", "osta_statusas": null, "skl_plotas": 0.15, "SHAPE_Length": 0.0, "SHAPE_Area": 0.0 }, "geometry": null },
{ "type": "Feature", "properties": { "OBJECTID": 613523, "unikalus_nr": "411007000122", "kadastro_nr": "4110/0700:0122", "sav_kodas": "41", "sav_pavadinimas": "Vilniaus r. sav.", "seniunijos_kodas": "4112", "seniunijos_pavad": "Zujūnų sen.", "pask_tipas": "995", "osta_statusas": null, "skl_plotas": 0.15, "SHAPE_Length": 0.0, "SHAPE_Area": 0.0 }, "geometry": null },
{ "type": "Feature", "properties": { "OBJECTID": 614317, "unikalus_nr": "440047123148", "kadastro_nr": "4110/0700:0930", "sav_kodas": "41", "sav_pavadinimas": "Vilniaus r. sav.", "seniunijos_kodas": "4112", "seniunijos_pavad": "Zujūnų sen.", "pask_tipas": "995", "osta_statusas": "21", "skl_plotas": 0.0537, "SHAPE_Length": 0.0, "SHAPE_Area": 0.0 }, "geometry": null },
{ "type": "Feature", "properties": { "OBJECTID": 615451, "unikalus_nr": "411007000061", "kadastro_nr": "4110/0700:0061", "sav_kodas": "41", "sav_pavadinimas": "Vilniaus r. sav.", "seniunijos_kodas": "4112", "seniunijos_pavad": "Zujūnų sen.", "pask_tipas": "995", "osta_statusas": null, "skl_plotas": 0.15, "SHAPE_Length": 0.0, "SHAPE_Area": 0.0 }, "geometry": null },
{ "type": "Feature", "properties": { "OBJECTID": 618549, "unikalus_nr": "411007000066", "kadastro_nr": "4110/0700:0066", "sav_kodas": "41", "sav_pavadinimas": "Vilniaus r. sav.", "seniunijos_kodas": "4112", "seniunijos_pavad": "Zujūnų sen.", "pask_tipas": "995", "osta_statusas": null, "skl_plotas": 0.15, "SHAPE_Length": 0.0, "SHAPE_Area": 0.0 }, "geometry": null },
{ "type": "Feature", "properties": { "OBJECTID": 619778, "unikalus_nr": "440060981800", "kadastro_nr": "4110/0700:9112", "sav_kodas": "41", "sav_pavadinimas": "Vilniaus r. sav.", "seniunijos_kodas": "4112", "seniunijos_pavad": "Zujūnų sen.", "pask_tipas": "995", "osta_statusas": "22", "skl_plotas": 0.1604, "SHAPE_Length": 0.0, "SHAPE_Area": 0.0 }, "geometry": null },
{ "type": "Feature", "properties": { "OBJECTID": 620180, "unikalus_nr": "411007000035", "kadastro_nr": "4110/0700:0035", "sav_kodas": "41", "sav_pavadinimas": "Vilniaus r. sav.", "seniunijos_kodas": "4112", "seniunijos_pavad": "Zujūnų sen.", "pask_tipas": "995", "osta_statusas": null, "skl_plotas": 0.1001, "SHAPE_Length": 0.0, "SHAPE_Area": 0.0 }, "geometry": null },
{ "type": "Feature", "properties": { "OBJECTID": 621033, "unikalus_nr": "440063194861", "kadastro_nr": "4110/0700:9158", "sav_kodas": "41", "sav_pavadinimas": "Vilniaus r. sav.", "seniunijos_kodas": "4112", "seniunijos_pavad": "Zujūnų sen.", "pask_tipas": "995", "osta_statusas": "22", "skl_plotas": 0.1716, "SHAPE_Length": 0.0, "SHAPE_Area": 0.0 }, "geometry": null },
{ "type": "Feature", "properties": { "OBJECTID": 621281, "unikalus_nr": "440053141550", "kadastro_nr": "4103/0200:2967", "sav_kodas": "41", "sav_pavadinimas": "Vilniaus r. sav.", "seniunijos_kodas": "4102", "seniunijos_pavad": "Avižienių sen.", "pask_tipas": "995", "osta_statusas": "21", "skl_plotas": 0.0682, "SHAPE_Length": 0.0, "SHAPE_Area": 0.0 }, "geometry": null },
{ "type": "Feature", "properties": { "OBJECTID": 621285, "unikalus_nr": "440057635631", "kadastro_nr": "4110/0700:1309", "sav_kodas": "41", "sav_pavadinimas": "Vilniaus r. sav.", "seniunijos_kodas": "4112", "seniunijos_pavad": "Zujūnų sen.", "pask_tipas": "995", "osta_statusas": "21", "skl_plotas": 0.104, "SHAPE_Length": 0.0, "SHAPE_Area": 0.0 }, "geometry": null },
{ "type": "Feature", "properties": { "OBJECTID": 621981, "unikalus_nr": "440047140160", "kadastro_nr": "4110/0700:0984", "sav_kodas": "41", "sav_pavadinimas": "Vilniaus r. sav.", "seniunijos_kodas": "4112", "seniunijos_pavad": "Zujūnų sen.", "pask_tipas": "995", "osta_statusas": "21", "skl_plotas": 0.1123, "SHAPE_Length": 0.0, "SHAPE_Area": 0.0 }, "geometry": null },
{ "type": "Feature", "properties": { "OBJECTID": 622573, "unikalus_nr": "440051090261", "kadastro_nr": "4110/0700:0968", "sav_kodas": "41", "sav_pavadinimas": "Vilniaus r. sav.", "seniunijos_kodas": "4112", "seniunijos_pavad": "Zujūnų sen.", "pask_tipas": "995", "osta_statusas": null, "skl_plotas": 0.137, "SHAPE_Length": 0.0, "SHAPE_Area": 0.0 }, "geometry": null },
{ "type": "Feature", "properties": { "OBJECTID": 623026, "unikalus_nr": "440057635531", "kadastro_nr": "4110/0700:1260", "sav_kodas": "41", "sav_pavadinimas": "Vilniaus r. sav.", "seniunijos_kodas": "4112", "seniunijos_pavad": "Zujūnų sen.", "pask_tipas": "995", "osta_statusas": "21", "skl_plotas": 0.126, "SHAPE_Length": 0.0, "SHAPE_Area": 0.0 }, "geometry": null },
{ "type": "Feature", "properties": { "OBJECTID": 623055, "unikalus_nr": "440018565745", "kadastro_nr": "4103/0200:2111", "sav_kodas": "41", "sav_pavadinimas": "Vilniaus r. sav.", "seniunijos_kodas": "4102", "seniunijos_pavad": "Avižienių sen.", "pask_tipas": "610", "osta_statusas": null, "skl_plotas": 1.44, "SHAPE_Length": 0.0, "SHAPE_Area": 0.0 }, "geometry": null },
{ "type": "Feature", "properties": { "OBJECTID": 623515, "unikalus_nr": "440008181034", "kadastro_nr": "4110/0700:1101", "sav_kodas": "41", "sav_pavadinimas": "Vilniaus r. sav.", "seniunijos_kodas": "4112", "seniunijos_pavad": "Zujūnų sen.", "pask_tipas": "995", "osta_statusas": "21", "skl_plotas": 0.2588, "SHAPE_Length": 0.0, "SHAPE_Area": 0.0 }, "geometry": null },
{ "type": "Feature", "properties": { "OBJECTID": 624515, "unikalus_nr": "440018098416", "kadastro_nr": "4110/0700:1091", "sav_kodas": "41", "sav_pavadinimas": "Vilniaus r. sav.", "seniunijos_kodas": "4112", "seniunijos_pavad": "Zujūnų sen.", "pask_tipas": "610", "osta_statusas": "21", "skl_plotas": 0.2159, "SHAPE_Length": 0.0, "SHAPE_Area": 0.0 }, "geometry": null },
{ "type": "Feature", "properties": { "OBJECTID": 624549, "unikalus_nr": "440027221761", "kadastro_nr": "4110/0700:0360", "sav_kodas": "41", "sav_pavadinimas": "Vilniaus r. sav.", "seniunijos_kodas": "4112", "seniunijos_pavad": "Zujūnų sen.", "pask_tipas": "995", "osta_statusas": "21", "skl_plotas": 0.1765, "SHAPE_Length": 0.0, "SHAPE_Area": 0.0 }, "geometry": null },
{ "type": "Feature", "properties": { "OBJECTID": 625964, "unikalus_nr": "440050153690", "kadastro_nr": "4103/0200:5882", "sav_kodas": "41", "sav_pavadinimas": "Vilniaus r. sav.", "seniunijos_kodas": "4102", "seniunijos_pavad": "Avižienių sen.", "pask_tipas": "995", "osta_statusas": "21", "skl_plotas": 0.1, "SHAPE_Length": 0.0, "SHAPE_Area": 0.0 }, "geometry": null },
{ "type": "Feature", "properties": { "OBJECTID": 628631, "unikalus_nr": "440016463911", "kadastro_nr": "4110/0700:4876", "sav_kodas": "41", "sav_pavadinimas": "Vilniaus r. sav.", "seniunijos_kodas": "4112", "seniunijos_pavad": "Zujūnų sen.", "pask_tipas": "610", "osta_statusas": "21", "skl_plotas": 0.0611, "SHAPE_Length": 0.0, "SHAPE_Area": 0.0 }, "geometry": null },
{ "type": "Feature", "properties": { "OBJECTID": 628794, "unikalus_nr": "440066175771", "kadastro_nr": "4110/0700:1323", "sav_kodas": "41", "sav_pavadinimas": "Vilniaus r. sav.", "seniunijos_kodas": "4112", "seniunijos_pavad": "Zujūnų sen.", "pask_tipas": "995", "osta_statusas": "22", "skl_plotas": 0.1848, "SHAPE_Length": 0.0, "SHAPE_Area": 0.0 }, "geometry": null },
{ "type": "Feature", "properties": { "OBJECTID": 629355, "unikalus_nr": "440047127848", "kadastro_nr": "4110/0700:1004", "sav_kodas": "41", "sav_pavadinimas": "Vilniaus r. sav.", "seniunijos_kodas": "4112", "seniunijos_pavad": "Zujūnų sen.", "pask_tipas": "995", "osta_statusas": "21", "skl_plotas": 0.1001, "SHAPE_Length": 0.0, "SHAPE_Area": 0.0 }, "geometry": null },
{ "type": "Feature", "properties": { "OBJECTID": 629877, "unikalus_nr": "411007000094", "kadastro_nr": "4110/0700:0094", "sav_kodas": "41", "sav_pavadinimas": "Vilniaus r. sav.", "seniunijos_kodas": "4112", "seniunijos_pavad": "Zujūnų sen.", "pask_tipas": "995", "osta_statusas": null, "skl_plotas": 0.15, "SHAPE_Length": 0.0, "SHAPE_Area": 0.0 }, "geometry": null },
{ "type": "Feature", "properties": { "OBJECTID": 630173, "unikalus_nr": "440047127048", "kadastro_nr": "4110/0700:0990", "sav_kodas": "41", "sav_pavadinimas": "Vilniaus r. sav.", "seniunijos_kodas": "4112", "seniunijos_pavad": "Zujūnų sen.", "pask_tipas": "995", "osta_statusas": "21", "skl_plotas": 0.1004, "SHAPE_Length": 0.0, "SHAPE_Area": 0.0 }, "geometry": null },
{ "type": "Feature", "properties": { "OBJECTID": 630524, "unikalus_nr": "440047141735", "kadastro_nr": "4110/0700:1005", "sav_kodas": "41", "sav_pavadinimas": "Vilniaus r. sav.", "seniunijos_kodas": "4112", "seniunijos_pavad": "Zujūnų sen.", "pask_tipas": "995", "osta_statusas": "21", "skl_plotas": 0.1013, "SHAPE_Length": 0.0, "SHAPE_Area": 0.0 }, "geometry": null },
{ "type": "Feature", "properties": { "OBJECTID": 631368, "unikalus_nr": "440061024226", "kadastro_nr": "4110/0700:9111", "sav_kodas": "41", "sav_pavadinimas": "Vilniaus r. sav.", "seniunijos_kodas": "4112", "seniunijos_pavad": "Zujūnų sen.", "pask_tipas": "995", "osta_statusas": "22", "skl_plotas": 0.1656, "SHAPE_Length": 0.0, "SHAPE_Area": 0.0 }, "geometry": null },
{ "type": "Feature", "properties": { "OBJECTID": 633637, "unikalus_nr": "411007000116", "kadastro_nr": "4110/0700:0116", "sav_kodas": "41", "sav_pavadinimas": "Vilniaus r. sav.", "seniunijos_kodas": "4112", "seniunijos_pavad": "Zujūnų sen.", "pask_tipas": "995", "osta_statusas": null, "skl_plotas": 0.15, "SHAPE_Length": 0.0, "SHAPE_Area": 0.0 }, "geometry": null },
{ "type": "Feature", "properties": { "OBJECTID": 634578, "unikalus_nr": "440047141279", "kadastro_nr": "4110/0700:1008", "sav_kodas": "41", "sav_pavadinimas": "Vilniaus r. sav.", "seniunijos_kodas": "4112", "seniunijos_pavad": "Zujūnų sen.", "pask_tipas": "995", "osta_statusas": "21", "skl_plotas": 0.1058, "SHAPE_Length": 0.0, "SHAPE_Area": 0.0 }, "geometry": null },
{ "type": "Feature", "properties": { "OBJECTID": 634794, "unikalus_nr": "440060844086", "kadastro_nr": "4110/0700:9115", "sav_kodas": "41", "sav_pavadinimas": "Vilniaus r. sav.", "seniunijos_kodas": "4112", "seniunijos_pavad": "Zujūnų sen.", "pask_tipas": "995", "osta_statusas": null, "skl_plotas": 0.0209, "SHAPE_Length": 0.0, "SHAPE_Area": 0.0 }, "geometry": null },
{ "type": "Feature", "properties": { "OBJECTID": 634947, "unikalus_nr": "440036134264", "kadastro_nr": "4110/0700:0615", "sav_kodas": "41", "sav_pavadinimas": "Vilniaus r. sav.", "seniunijos_kodas": "4112", "seniunijos_pavad": "Zujūnų sen.", "pask_tipas": "610", "osta_statusas": "21", "skl_plotas": 0.129, "SHAPE_Length": 0.0, "SHAPE_Area": 0.0 }, "geometry": null },
{ "type": "Feature", "properties": { "OBJECTID": 636048, "unikalus_nr": "440020669445", "kadastro_nr": "4110/0700:4928", "sav_kodas": "41", "sav_pavadinimas": "Vilniaus r. sav.", "seniunijos_kodas": "4112", "seniunijos_pavad": "Zujūnų sen.", "pask_tipas": "995", "osta_statusas": null, "skl_plotas": 3.3143, "SHAPE_Length": 0.0, "SHAPE_Area": 0.0 }, "geometry": null },
{ "type": "Feature", "properties": { "OBJECTID": 636324, "unikalus_nr": "440059752939", "kadastro_nr": "4110/0700:9085", "sav_kodas": "41", "sav_pavadinimas": "Vilniaus r. sav.", "seniunijos_kodas": "4112", "seniunijos_pavad": "Zujūnų sen.", "pask_tipas": "995", "osta_statusas": "22", "skl_plotas": 0.1612, "SHAPE_Length": 0.0, "SHAPE_Area": 0.0 }, "geometry": null },
{ "type": "Feature", "properties": { "OBJECTID": 637034, "unikalus_nr": "411007000006", "kadastro_nr": "4110/0700:0006", "sav_kodas": "41", "sav_pavadinimas": "Vilniaus r. sav.", "seniunijos_kodas": "4112", "seniunijos_pavad": "Zujūnų sen.", "pask_tipas": "995", "osta_statusas": null, "skl_plotas": 0.1875, "SHAPE_Length": 0.0, "SHAPE_Area": 0.0 }, "geometry": null },
{ "type": "Feature", "properties": { "OBJECTID": 638252, "unikalus_nr": "440000899805", "kadastro_nr": "4110/0700:4754", "sav_kodas": "41", "sav_pavadinimas": "Vilniaus r. sav.", "seniunijos_kodas": "4112", "seniunijos_pavad": "Zujūnų sen.", "pask_tipas": "995", "osta_statusas": null, "skl_plotas": 0.15, "SHAPE_Length": 0.0, "SHAPE_Area": 0.0 }, "geometry": null },
{ "type": "Feature", "properties": { "OBJECTID": 638264, "unikalus_nr": "411007000062", "kadastro_nr": "4110/0700:0062", "sav_kodas": "41", "sav_pavadinimas": "Vilniaus r. sav.", "seniunijos_kodas": "4112", "seniunijos_pavad": "Zujūnų sen.", "pask_tipas": "995", "osta_statusas": null, "skl_plotas": 0.1504, "SHAPE_Length": 0.0, "SHAPE_Area": 0.0 }, "geometry": null },
{ "type": "Feature", "properties": { "OBJECTID": 639367, "unikalus_nr": "411007000115", "kadastro_nr": "4110/0700:0115", "sav_kodas": "41", "sav_pavadinimas": "Vilniaus r. sav.", "seniunijos_kodas": "4112", "seniunijos_pavad": "Zujūnų sen.", "pask_tipas": "995", "osta_statusas": null, "skl_plotas": 0.1529, "SHAPE_Length": 0.0, "SHAPE_Area": 0.0 }, "geometry": null },
{ "type": "Feature", "properties": { "OBJECTID": 640640, "unikalus_nr": "411007000131", "kadastro_nr": "4110/0700:0131", "sav_kodas": "41", "sav_pavadinimas": "Vilniaus r. sav.", "seniunijos_kodas": "4112", "seniunijos_pavad": "Zujūnų sen.", "pask_tipas": "995", "osta_statusas": null, "skl_plotas": 0.15, "SHAPE_Length": 0.0, "SHAPE_Area": 0.0 }, "geometry": null },
{ "type": "Feature", "properties": { "OBJECTID": 640942, "unikalus_nr": "440049771519", "kadastro_nr": "4110/0700:0959", "sav_kodas": "41", "sav_pavadinimas": "Vilniaus r. sav.", "seniunijos_kodas": "4112", "seniunijos_pavad": "Zujūnų sen.", "pask_tipas": "995", "osta_statusas": "21", "skl_plotas": 0.0751, "SHAPE_Length": 0.0, "SHAPE_Area": 0.0 }, "geometry": null },
{ "type": "Feature", "properties": { "OBJECTID": 643435, "unikalus_nr": "440018481753", "kadastro_nr": "4110/0700:4902", "sav_kodas": "41", "sav_pavadinimas": "Vilniaus r. sav.", "seniunijos_kodas": "4112", "seniunijos_pavad": "Zujūnų sen.", "pask_tipas": "995", "osta_statusas": "21", "skl_plotas": 0.1235, "SHAPE_Length": 0.0, "SHAPE_Area": 0.0 }, "geometry": null },
{ "type": "Feature", "properties": { "OBJECTID": 643560, "unikalus_nr": "411007000054", "kadastro_nr": "4110/0700:0054", "sav_kodas": "41", "sav_pavadinimas": "Vilniaus r. sav.", "seniunijos_kodas": "4112", "seniunijos_pavad": "Zujūnų sen.", "pask_tipas": "995", "osta_statusas": null, "skl_plotas": 0.15, "SHAPE_Length": 0.0, "SHAPE_Area": 0.0 }, "geometry": null },
{ "type": "Feature", "properties": { "OBJECTID": 643817, "unikalus_nr": "411007000205", "kadastro_nr": "4110/0700:0205", "sav_kodas": "41", "sav_pavadinimas": "Vilniaus r. sav.", "seniunijos_kodas": "4112", "seniunijos_pavad": "Zujūnų sen.", "pask_tipas": "995", "osta_statusas": null, "skl_plotas": 0.165, "SHAPE_Length": 0.0, "SHAPE_Area": 0.0 }, "geometry": null },
{ "type": "Feature", "properties": { "OBJECTID": 644146, "unikalus_nr": "411007000141", "kadastro_nr": "4110/0700:0141", "sav_kodas": "41", "sav_pavadinimas": "Vilniaus r. sav.", "seniunijos_kodas": "4112", "seniunijos_pavad": "Zujūnų sen.", "pask_tipas": "995", "osta_statusas": null, "skl_plotas": 0.15, "SHAPE_Length": 0.0, "SHAPE_Area": 0.0 }, "geometry": null },
{ "type": "Feature", "properties": { "OBJECTID": 644864, "unikalus_nr": "440045637654", "kadastro_nr": "4110/0700:0923", "sav_kodas": "41", "sav_pavadinimas": "Vilniaus r. sav.", "seniunijos_kodas": "4112", "seniunijos_pavad": "Zujūnų sen.", "pask_tipas": "995", "osta_statusas": "21", "skl_plotas": 0.1001, "SHAPE_Length": 0.0, "SHAPE_Area": 0.0 }, "geometry": null },
{ "type": "Feature", "properties": { "OBJECTID": 645872, "unikalus_nr": "411007000286", "kadastro_nr": "4110/0700:0286", "sav_kodas": "41", "sav_pavadinimas": "Vilniaus r. sav.", "seniunijos_kodas": "4112", "seniunijos_pavad": "Zujūnų sen.", "pask_tipas": "995", "osta_statusas": null, "skl_plotas": 0.15, "SHAPE_Length": 0.0, "SHAPE_Area": 0.0 }, "geometry": null },
{ "type": "Feature", "properties": { "OBJECTID": 646112, "unikalus_nr": "440053141329", "kadastro_nr": "4103/0200:8821", "sav_kodas": "41", "sav_pavadinimas": "Vilniaus r. sav.", "seniunijos_kodas": "4102", "seniunijos_pavad": "Avižienių sen.", "pask_tipas": "995", "osta_statusas": "21", "skl_plotas": 0.1002, "SHAPE_Length": 0.0, "SHAPE_Area": 0.0 }, "geometry": null },
{ "type": "Feature", "properties": { "OBJECTID": 646270, "unikalus_nr": "440047141213", "kadastro_nr": "4110/0700:0991", "sav_kodas": "41", "sav_pavadinimas": "Vilniaus r. sav.", "seniunijos_kodas": "4112", "seniunijos_pavad": "Zujūnų sen.", "pask_tipas": "995", "osta_statusas": "21", "skl_plotas": 0.1072, "SHAPE_Length": 0.0, "SHAPE_Area": 0.0 }, "geometry": null },
{ "type": "Feature", "properties": { "OBJECTID": 648567, "unikalus_nr": "440050220150", "kadastro_nr": "4103/0200:3386", "sav_kodas": "41", "sav_pavadinimas": "Vilniaus r. sav.", "seniunijos_kodas": "4102", "seniunijos_pavad": "Avižienių sen.", "pask_tipas": "995", "osta_statusas": "21", "skl_plotas": 0.1, "SHAPE_Length": 0.0, "SHAPE_Area": 0.0 }, "geometry": null },
{ "type": "Feature", "properties": { "OBJECTID": 648648, "unikalus_nr": "440048555884", "kadastro_nr": "4110/0700:0950", "sav_kodas": "41", "sav_pavadinimas": "Vilniaus r. sav.", "seniunijos_kodas": "4112", "seniunijos_pavad": "Zujūnų sen.", "pask_tipas": "995", "osta_statusas": null, "skl_plotas": 0.1447, "SHAPE_Length": 0.0, "SHAPE_Area": 0.0 }, "geometry": null },
{ "type": "Feature", "properties": { "OBJECTID": 650364, "unikalus_nr": "411007000285", "kadastro_nr": "4110/0700:0285", "sav_kodas": "41", "sav_pavadinimas": "Vilniaus r. sav.", "seniunijos_kodas": "4112", "seniunijos_pavad": "Zujūnų sen.", "pask_tipas": "995", "osta_statusas": null, "skl_plotas": 0.15, "SHAPE_Length": 0.0, "SHAPE_Area": 0.0 }, "geometry": null },
{ "type": "Feature", "properties": { "OBJECTID": 651536, "unikalus_nr": "440057917310", "kadastro_nr": "4110/0700:9105", "sav_kodas": "41", "sav_pavadinimas": "Vilniaus r. sav.", "seniunijos_kodas": "4112", "seniunijos_pavad": "Zujūnų sen.", "pask_tipas": "995", "osta_statusas": "22", "skl_plotas": 0.1597, "SHAPE_Length": 0.0, "SHAPE_Area": 0.0 }, "geometry": null },
{ "type": "Feature", "properties": { "OBJECTID": 653136, "unikalus_nr": "411007000145", "kadastro_nr": "4110/0700:0145", "sav_kodas": "41", "sav_pavadinimas": "Vilniaus r. sav.", "seniunijos_kodas": "4112", "seniunijos_pavad": "Zujūnų sen.", "pask_tipas": "995", "osta_statusas": null, "skl_plotas": 0.1537, "SHAPE_Length": 0.0, "SHAPE_Area": 0.0 }, "geometry": null },
{ "type": "Feature", "properties": { "OBJECTID": 657119, "unikalus_nr": "440057635410", "kadastro_nr": "4110/0700:1187", "sav_kodas": "41", "sav_pavadinimas": "Vilniaus r. sav.", "seniunijos_kodas": "4112", "seniunijos_pavad": "Zujūnų sen.", "pask_tipas": "995", "osta_statusas": "21", "skl_plotas": 0.1288, "SHAPE_Length": 0.0, "SHAPE_Area": 0.0 }, "geometry": null },
{ "type": "Feature", "properties": { "OBJECTID": 658685, "unikalus_nr": "411007000127", "kadastro_nr": "4110/0700:0127", "sav_kodas": "41", "sav_pavadinimas": "Vilniaus r. sav.", "seniunijos_kodas": "4112", "seniunijos_pavad": "Zujūnų sen.", "pask_tipas": "995", "osta_statusas": null, "skl_plotas": 0.15, "SHAPE_Length": 0.0, "SHAPE_Area": 0.0 }, "geometry": null },
{ "type": "Feature", "properties": { "OBJECTID": 659163, "unikalus_nr": "440004734867", "kadastro_nr": "4110/0700:0375", "sav_kodas": "41", "sav_pavadinimas": "Vilniaus r. sav.", "seniunijos_kodas": "4112", "seniunijos_pavad": "Zujūnų sen.", "pask_tipas": "995", "osta_statusas": "22", "skl_plotas": 0.1875, "SHAPE_Length": 0.0, "SHAPE_Area": 0.0 }, "geometry": null },
{ "type": "Feature", "properties": { "OBJECTID": 660864, "unikalus_nr": "440005180658", "kadastro_nr": "4110/0700:1803", "sav_kodas": "41", "sav_pavadinimas": "Vilniaus r. sav.", "seniunijos_kodas": "4112", "seniunijos_pavad": "Zujūnų sen.", "pask_tipas": "995", "osta_statusas": null, "skl_plotas": 0.14, "SHAPE_Length": 0.0, "SHAPE_Area": 0.0 }, "geometry": null },
{ "type": "Feature", "properties": { "OBJECTID": 662187, "unikalus_nr": "440008312954", "kadastro_nr": "4110/0700:0830", "sav_kodas": "41", "sav_pavadinimas": "Vilniaus r. sav.", "seniunijos_kodas": "4112", "seniunijos_pavad": "Zujūnų sen.", "pask_tipas": "995", "osta_statusas": null, "skl_plotas": 0.6, "SHAPE_Length": 0.0, "SHAPE_Area": 0.0 }, "geometry": null },
{ "type": "Feature", "properties": { "OBJECTID": 665740, "unikalus_nr": "440061014040", "kadastro_nr": "4110/0700:9116", "sav_kodas": "41", "sav_pavadinimas": "Vilniaus r. sav.", "seniunijos_kodas": "4112", "seniunijos_pavad": "Zujūnų sen.", "pask_tipas": "995", "osta_statusas": null, "skl_plotas": 0.0181, "SHAPE_Length": 0.0, "SHAPE_Area": 0.0 }, "geometry": null },
{ "type": "Feature", "properties": { "OBJECTID": 667565, "unikalus_nr": "411007000187", "kadastro_nr": "4110/0700:0187", "sav_kodas": "41", "sav_pavadinimas": "Vilniaus r. sav.", "seniunijos_kodas": "4112", "seniunijos_pavad": "Zujūnų sen.", "pask_tipas": "995", "osta_statusas": null, "skl_plotas": 0.1496, "SHAPE_Length": 0.0, "SHAPE_Area": 0.0 }, "geometry": null },
{ "type": "Feature", "properties": { "OBJECTID": 668396, "unikalus_nr": "411007000524", "kadastro_nr": "4110/0700:0524", "sav_kodas": "41", "sav_pavadinimas": "Vilniaus r. sav.", "seniunijos_kodas": "4112", "seniunijos_pavad": "Zujūnų sen.", "pask_tipas": "995", "osta_statusas": null, "skl_plotas": 0.1399, "SHAPE_Length": 0.0, "SHAPE_Area": 0.0 }, "geometry": null },
{ "type": "Feature", "properties": { "OBJECTID": 668866, "unikalus_nr": "440053141772", "kadastro_nr": "4103/0200:8819", "sav_kodas": "41", "sav_pavadinimas": "Vilniaus r. sav.", "seniunijos_kodas": "4102", "seniunijos_pavad": "Avižienių sen.", "pask_tipas": "995", "osta_statusas": "21", "skl_plotas": 0.1101, "SHAPE_Length": 0.0, "SHAPE_Area": 0.0 }, "geometry": null },
{ "type": "Feature", "properties": { "OBJECTID": 669872, "unikalus_nr": "440066022137", "kadastro_nr": "4110/0700:9180", "sav_kodas": "41", "sav_pavadinimas": "Vilniaus r. sav.", "seniunijos_kodas": "4112", "seniunijos_pavad": "Zujūnų sen.", "pask_tipas": "995", "osta_statusas": null, "skl_plotas": 0.0304, "SHAPE_Length": 0.0, "SHAPE_Area": 0.0 }, "geometry": null },
{ "type": "Feature", "properties": { "OBJECTID": 670073, "unikalus_nr": "411007000089", "kadastro_nr": "4110/0700:0089", "sav_kodas": "41", "sav_pavadinimas": "Vilniaus r. sav.", "seniunijos_kodas": "4112", "seniunijos_pavad": "Zujūnų sen.", "pask_tipas": "995", "osta_statusas": null, "skl_plotas": 0.15, "SHAPE_Length": 0.0, "SHAPE_Area": 0.0 }, "geometry": null },
{ "type": "Feature", "properties": { "OBJECTID": 671785, "unikalus_nr": "440047212654", "kadastro_nr": "4110/0700:0997", "sav_kodas": "41", "sav_pavadinimas": "Vilniaus r. sav.", "seniunijos_kodas": "4112", "seniunijos_pavad": "Zujūnų sen.", "pask_tipas": "995", "osta_statusas": "21", "skl_plotas": 0.1004, "SHAPE_Length": 0.0, "SHAPE_Area": 0.0 }, "geometry": null },
{ "type": "Feature", "properties": { "OBJECTID": 672393, "unikalus_nr": "440008181262", "kadastro_nr": "4110/0700:1102", "sav_kodas": "41", "sav_pavadinimas": "Vilniaus r. sav.", "seniunijos_kodas": "4112", "seniunijos_pavad": "Zujūnų sen.", "pask_tipas": "995", "osta_statusas": "21", "skl_plotas": 0.12, "SHAPE_Length": 0.0, "SHAPE_Area": 0.0 }, "geometry": null },
{ "type": "Feature", "properties": { "OBJECTID": 672499, "unikalus_nr": "411007000081", "kadastro_nr": "4110/0700:0081", "sav_kodas": "41", "sav_pavadinimas": "Vilniaus r. sav.", "seniunijos_kodas": "4112", "seniunijos_pavad": "Zujūnų sen.", "pask_tipas": "995", "osta_statusas": null, "skl_plotas": 0.205, "SHAPE_Length": 0.0, "SHAPE_Area": 0.0 }, "geometry": null },
{ "type": "Feature", "properties": { "OBJECTID": 672863, "unikalus_nr": "440056162346", "kadastro_nr": "4110/0700:1159", "sav_kodas": "41", "sav_pavadinimas": "Vilniaus r. sav.", "seniunijos_kodas": "4112", "seniunijos_pavad": "Zujūnų sen.", "pask_tipas": "995", "osta_statusas": null, "skl_plotas": 0.111, "SHAPE_Length": 0.0, "SHAPE_Area": 0.0 }, "geometry": null },
{ "type": "Feature", "properties": { "OBJECTID": 673625, "unikalus_nr": "440053141307", "kadastro_nr": "4103/0200:8820", "sav_kodas": "41", "sav_pavadinimas": "Vilniaus r. sav.", "seniunijos_kodas": "4102", "seniunijos_pavad": "Avižienių sen.", "pask_tipas": "995", "osta_statusas": "21", "skl_plotas": 0.1111, "SHAPE_Length": 0.0, "SHAPE_Area": 0.0 }, "geometry": null },
{ "type": "Feature", "properties": { "OBJECTID": 673985, "unikalus_nr": "411007000140", "kadastro_nr": "4110/0700:0140", "sav_kodas": "41", "sav_pavadinimas": "Vilniaus r. sav.", "seniunijos_kodas": "4112", "seniunijos_pavad": "Zujūnų sen.", "pask_tipas": "995", "osta_statusas": null, "skl_plotas": 0.2475, "SHAPE_Length": 0.0, "SHAPE_Area": 0.0 }, "geometry": null },
{ "type": "Feature", "properties": { "OBJECTID": 674293, "unikalus_nr": "440050150988", "kadastro_nr": "4103/0200:9044", "sav_kodas": "41", "sav_pavadinimas": "Vilniaus r. sav.", "seniunijos_kodas": "4102", "seniunijos_pavad": "Avižienių sen.", "pask_tipas": "995", "osta_statusas": "21", "skl_plotas": 0.1, "SHAPE_Length": 0.0, "SHAPE_Area": 0.0 }, "geometry": null },
{ "type": "Feature", "properties": { "OBJECTID": 674557, "unikalus_nr": "440003536021", "kadastro_nr": "4110/0700:2000", "sav_kodas": "41", "sav_pavadinimas": "Vilniaus r. sav.", "seniunijos_kodas": "4112", "seniunijos_pavad": "Zujūnų sen.", "pask_tipas": "995", "osta_statusas": null, "skl_plotas": 0.1504, "SHAPE_Length": 0.0, "SHAPE_Area": 0.0 }, "geometry": null },
{ "type": "Feature", "properties": { "OBJECTID": 675887, "unikalus_nr": "440023984276", "kadastro_nr": "4110/0700:2992", "sav_kodas": "41", "sav_pavadinimas": "Vilniaus r. sav.", "seniunijos_kodas": "4112", "seniunijos_pavad": "Zujūnų sen.", "pask_tipas": "995", "osta_statusas": "21", "skl_plotas": 0.1185, "SHAPE_Length": 0.0, "SHAPE_Area": 0.0 }, "geometry": null },
{ "type": "Feature", "properties": { "OBJECTID": 676452, "unikalus_nr": "440000347040", "kadastro_nr": "4110/0700:0684", "sav_kodas": "41", "sav_pavadinimas": "Vilniaus r. sav.", "seniunijos_kodas": "4112", "seniunijos_pavad": "Zujūnų sen.", "pask_tipas": "995", "osta_statusas": null, "skl_plotas": 0.15, "SHAPE_Length": 0.0, "SHAPE_Area": 0.0 }, "geometry": null },
{ "type": "Feature", "properties": { "OBJECTID": 676583, "unikalus_nr": "440050151941", "kadastro_nr": "4103/0200:9043", "sav_kodas": "41", "sav_pavadinimas": "Vilniaus r. sav.", "seniunijos_kodas": "4102", "seniunijos_pavad": "Avižienių sen.", "pask_tipas": "995", "osta_statusas": "21", "skl_plotas": 0.2898, "SHAPE_Length": 0.0, "SHAPE_Area": 0.0 }, "geometry": null },
{ "type": "Feature", "properties": { "OBJECTID": 676615, "unikalus_nr": "440032174639", "kadastro_nr": "4110/0700:0607", "sav_kodas": "41", "sav_pavadinimas": "Vilniaus r. sav.", "seniunijos_kodas": "4112", "seniunijos_pavad": "Zujūnų sen.", "pask_tipas": "995", "osta_statusas": "21", "skl_plotas": 0.1371, "SHAPE_Length": 0.0, "SHAPE_Area": 0.0 }, "geometry": null },
{ "type": "Feature", "properties": { "OBJECTID": 676948, "unikalus_nr": "411007000123", "kadastro_nr": "4110/0700:0123", "sav_kodas": "41", "sav_pavadinimas": "Vilniaus r. sav.", "seniunijos_kodas": "4112", "seniunijos_pavad": "Zujūnų sen.", "pask_tipas": "995", "osta_statusas": null, "skl_plotas": 0.15, "SHAPE_Length": 0.0, "SHAPE_Area": 0.0 }, "geometry": null },
{ "type": "Feature", "properties": { "OBJECTID": 680410, "unikalus_nr": "411007000302", "kadastro_nr": "4110/0700:0302", "sav_kodas": "41", "sav_pavadinimas": "Vilniaus r. sav.", "seniunijos_kodas": "4112", "seniunijos_pavad": "Zujūnų sen.", "pask_tipas": "995", "osta_statusas": null, "skl_plotas": 0.1498, "SHAPE_Length": 0.0, "SHAPE_Area": 0.0 }, "geometry": null },
{ "type": "Feature", "properties": { "OBJECTID": 680466, "unikalus_nr": "440047127915", "kadastro_nr": "4110/0700:1011", "sav_kodas": "41", "sav_pavadinimas": "Vilniaus r. sav.", "seniunijos_kodas": "4112", "seniunijos_pavad": "Zujūnų sen.", "pask_tipas": "995", "osta_statusas": "21", "skl_plotas": 0.1002, "SHAPE_Length": 0.0, "SHAPE_Area": 0.0 }, "geometry": null },
{ "type": "Feature", "properties": { "OBJECTID": 680737, "unikalus_nr": "411007000065", "kadastro_nr": "4110/0700:0065", "sav_kodas": "41", "sav_pavadinimas": "Vilniaus r. sav.", "seniunijos_kodas": "4112", "seniunijos_pavad": "Zujūnų sen.", "pask_tipas": "995", "osta_statusas": null, "skl_plotas": 0.1502, "SHAPE_Length": 0.0, "SHAPE_Area": 0.0 }, "geometry": null },
{ "type": "Feature", "properties": { "OBJECTID": 682498, "unikalus_nr": "411007000074", "kadastro_nr": "4110/0700:0074", "sav_kodas": "41", "sav_pavadinimas": "Vilniaus r. sav.", "seniunijos_kodas": "4112", "seniunijos_pavad": "Zujūnų sen.", "pask_tipas": "995", "osta_statusas": null, "skl_plotas": 0.1508, "SHAPE_Length": 0.0, "SHAPE_Area": 0.0 }, "geometry": null },
{ "type": "Feature", "properties": { "OBJECTID": 684185, "unikalus_nr": "440049772638", "kadastro_nr": "4110/0700:1036", "sav_kodas": "41", "sav_pavadinimas": "Vilniaus r. sav.", "seniunijos_kodas": "4112", "seniunijos_pavad": "Zujūnų sen.", "pask_tipas": "995", "osta_statusas": "21", "skl_plotas": 0.0749, "SHAPE_Length": 0.0, "SHAPE_Area": 0.0 }, "geometry": null },
{ "type": "Feature", "properties": { "OBJECTID": 684350, "unikalus_nr": "440009029348", "kadastro_nr": "4110/0700:4827", "sav_kodas": "41", "sav_pavadinimas": "Vilniaus r. sav.", "seniunijos_kodas": "4112", "seniunijos_pavad": "Zujūnų sen.", "pask_tipas": "995", "osta_statusas": "21", "skl_plotas": 0.1, "SHAPE_Length": 0.0, "SHAPE_Area": 0.0 }, "geometry": null },
{ "type": "Feature", "properties": { "OBJECTID": 685298, "unikalus_nr": "411007000106", "kadastro_nr": "4110/0700:0106", "sav_kodas": "41", "sav_pavadinimas": "Vilniaus r. sav.", "seniunijos_kodas": "4112", "seniunijos_pavad": "Zujūnų sen.", "pask_tipas": "995", "osta_statusas": null, "skl_plotas": 0.15, "SHAPE_Length": 0.0, "SHAPE_Area": 0.0 }, "geometry": null },
{ "type": "Feature", "properties": { "OBJECTID": 685477, "unikalus_nr": "440058953310", "kadastro_nr": "4110/0700:5041", "sav_kodas": "41", "sav_pavadinimas": "Vilniaus r. sav.", "seniunijos_kodas": "4112", "seniunijos_pavad": "Zujūnų sen.", "pask_tipas": "995", "osta_statusas": null, "skl_plotas": 0.0146, "SHAPE_Length": 0.0, "SHAPE_Area": 0.0 }, "geometry": null },
{ "type": "Feature", "properties": { "OBJECTID": 685801, "unikalus_nr": "440015873906", "kadastro_nr": "4110/0700:4867", "sav_kodas": "41", "sav_pavadinimas": "Vilniaus r. sav.", "seniunijos_kodas": "4112", "seniunijos_pavad": "Zujūnų sen.", "pask_tipas": "995", "osta_statusas": null, "skl_plotas": 0.1, "SHAPE_Length": 0.0, "SHAPE_Area": 0.0 }, "geometry": null },
{ "type": "Feature", "properties": { "OBJECTID": 686778, "unikalus_nr": "440050151028", "kadastro_nr": "4103/0200:9045", "sav_kodas": "41", "sav_pavadinimas": "Vilniaus r. sav.", "seniunijos_kodas": "4102", "seniunijos_pavad": "Avižienių sen.", "pask_tipas": "995", "osta_statusas": "21", "skl_plotas": 0.1001, "SHAPE_Length": 0.0, "SHAPE_Area": 0.0 }, "geometry": null },
{ "type": "Feature", "properties": { "OBJECTID": 688099, "unikalus_nr": "440047212606", "kadastro_nr": "4110/0700:0939", "sav_kodas": "41", "sav_pavadinimas": "Vilniaus r. sav.", "seniunijos_kodas": "4112", "seniunijos_pavad": "Zujūnų sen.", "pask_tipas": "995", "osta_statusas": "21", "skl_plotas": 0.1003, "SHAPE_Length": 0.0, "SHAPE_Area": 0.0 }, "geometry": null },
{ "type": "Feature", "properties": { "OBJECTID": 689081, "unikalus_nr": "440053141744", "kadastro_nr": "4103/0200:8817", "sav_kodas": "41", "sav_pavadinimas": "Vilniaus r. sav.", "seniunijos_kodas": "4102", "seniunijos_pavad": "Avižienių sen.", "pask_tipas": "610", "osta_statusas": "21", "skl_plotas": 0.1002, "SHAPE_Length": 0.0, "SHAPE_Area": 0.0 }, "geometry": null },
{ "type": "Feature", "properties": { "OBJECTID": 690278, "unikalus_nr": "411007000128", "kadastro_nr": "4110/0700:0128", "sav_kodas": "41", "sav_pavadinimas": "Vilniaus r. sav.", "seniunijos_kodas": "4112", "seniunijos_pavad": "Zujūnų sen.", "pask_tipas": "995", "osta_statusas": null, "skl_plotas": 0.15, "SHAPE_Length": 0.0, "SHAPE_Area": 0.0 }, "geometry": null },
{ "type": "Feature", "properties": { "OBJECTID": 690691, "unikalus_nr": "440032687415", "kadastro_nr": "4110/0700:0608", "sav_kodas": "41", "sav_pavadinimas": "Vilniaus r. sav.", "seniunijos_kodas": "4112", "seniunijos_pavad": "Zujūnų sen.", "pask_tipas": "610", "osta_statusas": "21", "skl_plotas": 0.17, "SHAPE_Length": 0.0, "SHAPE_Area": 0.0 }, "geometry": null },
{ "type": "Feature", "properties": { "OBJECTID": 692490, "unikalus_nr": "411007000070", "kadastro_nr": "4110/0700:0070", "sav_kodas": "41", "sav_pavadinimas": "Vilniaus r. sav.", "seniunijos_kodas": "4112", "seniunijos_pavad": "Zujūnų sen.", "pask_tipas": "995", "osta_statusas": null, "skl_plotas": 0.15, "SHAPE_Length": 0.0, "SHAPE_Area": 0.0 }, "geometry": null },
{ "type": "Feature", "properties": { "OBJECTID": 693290, "unikalus_nr": "411007000260", "kadastro_nr": "4110/0700:0260", "sav_kodas": "41", "sav_pavadinimas": "Vilniaus r. sav.", "seniunijos_kodas": "4112", "seniunijos_pavad": "Zujūnų sen.", "pask_tipas": "995", "osta_statusas": null, "skl_plotas": 0.13, "SHAPE_Length": 0.0, "SHAPE_Area": 0.0 }, "geometry": null },
{ "type": "Feature", "properties": { "OBJECTID": 693491, "unikalus_nr": "440023984165", "kadastro_nr": "4110/0700:2991", "sav_kodas": "41", "sav_pavadinimas": "Vilniaus r. sav.", "seniunijos_kodas": "4112", "seniunijos_pavad": "Zujūnų sen.", "pask_tipas": "995", "osta_statusas": "21", "skl_plotas": 0.1185, "SHAPE_Length": 0.0, "SHAPE_Area": 0.0 }, "geometry": null },
{ "type": "Feature", "properties": { "OBJECTID": 695296, "unikalus_nr": "411007000245", "kadastro_nr": "4110/0700:0245", "sav_kodas": "41", "sav_pavadinimas": "Vilniaus r. sav.", "seniunijos_kodas": "4112", "seniunijos_pavad": "Zujūnų sen.", "pask_tipas": "995", "osta_statusas": null, "skl_plotas": 0.1, "SHAPE_Length": 0.0, "SHAPE_Area": 0.0 }, "geometry": null },
{ "type": "Feature", "properties": { "OBJECTID": 695472, "unikalus_nr": "440047125010", "kadastro_nr": "4110/0700:1007", "sav_kodas": "41", "sav_pavadinimas": "Vilniaus r. sav.", "seniunijos_kodas": "4112", "seniunijos_pavad": "Zujūnų sen.", "pask_tipas": "995", "osta_statusas": "21", "skl_plotas": 0.101, "SHAPE_Length": 0.0, "SHAPE_Area": 0.0 }, "geometry": null },
{ "type": "Feature", "properties": { "OBJECTID": 697064, "unikalus_nr": "411007000299", "kadastro_nr": "4110/0700:0299", "sav_kodas": "41", "sav_pavadinimas": "Vilniaus r. sav.", "seniunijos_kodas": "4112", "seniunijos_pavad": "Zujūnų sen.", "pask_tipas": "995", "osta_statusas": null, "skl_plotas": 0.1625, "SHAPE_Length": 0.0, "SHAPE_Area": 0.0 }, "geometry": null },
{ "type": "Feature", "properties": { "OBJECTID": 701166, "unikalus_nr": "411007000198", "kadastro_nr": "4110/0700:0198", "sav_kodas": "41", "sav_pavadinimas": "Vilniaus r. sav.", "seniunijos_kodas": "4112", "seniunijos_pavad": "Zujūnų sen.", "pask_tipas": "995", "osta_statusas": null, "skl_plotas": 0.1755, "SHAPE_Length": 0.0, "SHAPE_Area": 0.0 }, "geometry": null },
{ "type": "Feature", "properties": { "OBJECTID": 701347, "unikalus_nr": "411007000079", "kadastro_nr": "4110/0700:0079", "sav_kodas": "41", "sav_pavadinimas": "Vilniaus r. sav.", "seniunijos_kodas": "4112", "seniunijos_pavad": "Zujūnų sen.", "pask_tipas": "995", "osta_statusas": null, "skl_plotas": 0.1504, "SHAPE_Length": 0.0, "SHAPE_Area": 0.0 }, "geometry": null },
{ "type": "Feature", "properties": { "OBJECTID": 701740, "unikalus_nr": "411007000226", "kadastro_nr": "4110/0700:0226", "sav_kodas": "41", "sav_pavadinimas": "Vilniaus r. sav.", "seniunijos_kodas": "4112", "seniunijos_pavad": "Zujūnų sen.", "pask_tipas": "995", "osta_statusas": null, "skl_plotas": 0.15, "SHAPE_Length": 0.0, "SHAPE_Area": 0.0 }, "geometry": null },
{ "type": "Feature", "properties": { "OBJECTID": 702279, "unikalus_nr": "411007000105", "kadastro_nr": "4110/0700:0105", "sav_kodas": "41", "sav_pavadinimas": "Vilniaus r. sav.", "seniunijos_kodas": "4112", "seniunijos_pavad": "Zujūnų sen.", "pask_tipas": "995", "osta_statusas": null, "skl_plotas": 0.15, "SHAPE_Length": 0.0, "SHAPE_Area": 0.0 }, "geometry": null },
{ "type": "Feature", "properties": { "OBJECTID": 703873, "unikalus_nr": "411007000112", "kadastro_nr": "4110/0700:0112", "sav_kodas": "41", "sav_pavadinimas": "Vilniaus r. sav.", "seniunijos_kodas": "4112", "seniunijos_pavad": "Zujūnų sen.", "pask_tipas": "995", "osta_statusas": null, "skl_plotas": 0.15, "SHAPE_Length": 0.0, "SHAPE_Area": 0.0 }, "geometry": null },
{ "type": "Feature", "properties": { "OBJECTID": 704989, "unikalus_nr": "411007000323", "kadastro_nr": "4110/0700:0323", "sav_kodas": "41", "sav_pavadinimas": "Vilniaus r. sav.", "seniunijos_kodas": "4112", "seniunijos_pavad": "Zujūnų sen.", "pask_tipas": "995", "osta_statusas": null, "skl_plotas": 0.15, "SHAPE_Length": 0.0, "SHAPE_Area": 0.0 }, "geometry": null },
{ "type": "Feature", "properties": { "OBJECTID": 705531, "unikalus_nr": "440018188204", "kadastro_nr": "4103/0200:2060", "sav_kodas": "41", "sav_pavadinimas": "Vilniaus r. sav.", "seniunijos_kodas": "4102", "seniunijos_pavad": "Avižienių sen.", "pask_tipas": "610", "osta_statusas": null, "skl_plotas": 0.66, "SHAPE_Length": 0.0, "SHAPE_Area": 0.0 }, "geometry": null },
{ "type": "Feature", "properties": { "OBJECTID": 705908, "unikalus_nr": "440047127970", "kadastro_nr": "4110/0700:1026", "sav_kodas": "41", "sav_pavadinimas": "Vilniaus r. sav.", "seniunijos_kodas": "4112", "seniunijos_pavad": "Zujūnų sen.", "pask_tipas": "995", "osta_statusas": "21", "skl_plotas": 0.1002, "SHAPE_Length": 0.0, "SHAPE_Area": 0.0 }, "geometry": null },
{ "type": "Feature", "properties": { "OBJECTID": 707359, "unikalus_nr": "411007000137", "kadastro_nr": "4110/0700:0137", "sav_kodas": "41", "sav_pavadinimas": "Vilniaus r. sav.", "seniunijos_kodas": "4112", "seniunijos_pavad": "Zujūnų sen.", "pask_tipas": "995", "osta_statusas": null, "skl_plotas": 0.15, "SHAPE_Length": 0.0, "SHAPE_Area": 0.0 }, "geometry": null },
{ "type": "Feature", "properties": { "OBJECTID": 707365, "unikalus_nr": "440046350609", "kadastro_nr": "4110/0700:0989", "sav_kodas": "41", "sav_pavadinimas": "Vilniaus r. sav.", "seniunijos_kodas": "4112", "seniunijos_pavad": "Zujūnų sen.", "pask_tipas": "995", "osta_statusas": "21", "skl_plotas": 0.1137, "SHAPE_Length": 0.0, "SHAPE_Area": 0.0 }, "geometry": null }
]
}
